STARLINK-33754          
1 63487U 25070AD  26068.94007447  .00026592  00000+0  97230-3 0  9996
2 63487  42.9997 258.4595 0001988 262.6810  97.3816 15.27582531 53011
KUIPER-00209            
1 67776U 26030N   26068.61786546  .00035298  00000+0  11963-2 0  9997
2 67776  51.8838 220.0775 0012191  59.1967 301.0215 15.30161950  5077
